start=new Date('2022-11-15T00:00:00.000Z').valueOf();
sats=[{"MEAN_MOTION":"15.51060736","OBJECT_TYPE":"PAYLOAD","COUNTRY_CODE":"US","TIME_SYSTEM":"UTC","DECAY_DATE":null,"TLE_LINE2":"2 53901  53.2163   3.1329 0001848  83.9222 276.1999 15.51060736  8820","EPHEMERIS_TYPE":"0","REF_FRAME":"TEME","NORAD_CAT_ID":"53901","CLASSIFICATION_TYPE":"U","BSTAR":"-0.00388130000000","APOAPSIS":"414.885","MEAN_MOTION_DOT":"-0.00223734","PERIOD":"92.840","GP_ID":"217788492","PERIAPSIS":"412.375","OBJECT_NAME":"STARLINK-5024","FILE":"3656014","INCLINATION":"53.2163","ARG_OF_PERICENTER":"83.9222","REV_AT_EPOCH":"882","ELEMENT_SET_NO":"999","ECCENTRICITY":"0.00018480","CENTER_NAME":"EARTH","SITE":"AFETR","RA_OF_ASC_NODE":"3.1329","LAUNCH_DATE":"2022-09-24","SEMIMAJOR_AXIS":"6791.765","OBJECT_ID":"2022-119R","EPOCH":"2022-11-14T15:32:00.736800","TLE_LINE1":"1 53901U 22119R   22318.64723075 -.00223734  00000-0 -38813-2 0  9991","MEAN_ANOMALY":"276.1999","MEAN_ELEMENT_THEORY":"SGP4","RCS_SIZE":"LARGE","MEAN_MOTION_DDOT":"0.0000000000000"},{"LAUNCH_DATE":"2022-09-24","SITE":"AFETR","RA_OF_ASC_NODE":"0.4961","SEMIMAJOR_AXIS":"6727.942","OBJECT_ID":"2022-119S","MEAN_ANOMALY":"95.5752","TLE_LINE1":"1 53902U 22119S   22318.91667824  .00097649  00000-0  69132-3 0  9992","EPOCH":"2022-11-14T22:00:00.999936","MEAN_MOTION_DDOT":"0.0000000000000","RCS_SIZE":"LARGE","MEAN_ELEMENT_THEORY":"SGP4","GP_ID":"217744487","PERIOD":"91.534","PERIAPSIS":"344.120","INCLINATION":"53.2158","FILE":"3655161","OBJECT_NAME":"STARLINK-5021","ELEMENT_SET_NO":"999","CENTER_NAME":"EARTH","ECCENTRICITY":"0.00084520","REV_AT_EPOCH":"845","ARG_OF_PERICENTER":"283.0369","REF_FRAME":"TEME","CLASSIFICATION_TYPE":"U","NORAD_CAT_ID":"53902","BSTAR":"0.00069132000000","APOAPSIS":"355.493","MEAN_MOTION_DOT":"0.00097649","MEAN_MOTION":"15.73183747","TIME_SYSTEM":"UTC","DECAY_DATE":null,"COUNTRY_CODE":"US","OBJECT_TYPE":"PAYLOAD","TLE_LINE2":"2 53902  53.2158   0.4961 0008452 283.0369  95.5752 15.73183747  8451","EPHEMERIS_TYPE":"0"},{"EPHEMERIS_TYPE":"0","TLE_LINE2":"2 53903  53.2176   1.8268 0001416  62.2382   8.3046 15.49884057  8444","OBJECT_TYPE":"PAYLOAD","COUNTRY_CODE":"US","DECAY_DATE":null,"TIME_SYSTEM":"UTC","MEAN_MOTION":"15.49884057","MEAN_MOTION_DOT":"0.00002174","APOAPSIS":"418.029","BSTAR":"0.00004624600000","REF_FRAME":"TEME","CLASSIFICATION_TYPE":"U","NORAD_CAT_ID":"53903","ARG_OF_PERICENTER":"62.2382","REV_AT_EPOCH":"844","ECCENTRICITY":"0.00014160","ELEMENT_SET_NO":"999","CENTER_NAME":"EARTH","OBJECT_NAME":"STARLINK-5022","INCLINATION":"53.2176","FILE":"3655161","PERIAPSIS":"416.105","PERIOD":"92.910","GP_ID":"217744492","MEAN_ELEMENT_THEORY":"SGP4","RCS_SIZE":"LARGE","MEAN_MOTION_DDOT":"0.0000000000000","EPOCH":"2022-11-14T22:00:00.999936","TLE_LINE1":"1 53903U 22119T   22318.91667824  .00002174  00000-0  46246-4 0  9994","MEAN_ANOMALY":"8.3046","OBJECT_ID":"2022-119T","SEMIMAJOR_AXIS":"6795.202","RA_OF_ASC_NODE":"1.8268","SITE":"AFETR","LAUNCH_DATE":"2022-09-24"},{"INCLINATION":"53.2176","FILE":"3655161","OBJECT_NAME":"STARLINK-4787","REV_AT_EPOCH":"844","ELEMENT_SET_NO":"999","ECCENTRICITY":"0.00013680","CENTER_NAME":"EARTH","ARG_OF_PERICENTER":"55.4761","GP_ID":"217744965","PERIOD":"92.910","PERIAPSIS":"416.137","MEAN_ANOMALY":"19.0270","EPOCH":"2022-11-14T22:00:00.999936","TLE_LINE1":"1 53904U 22119U   22318.91667824  .00001998  00000-0  43142-4 0  9990","MEAN_MOTION_DDOT":"0.0000000000000","MEAN_ELEMENT_THEORY":"SGP4","RCS_SIZE":"MEDIUM","LAUNCH_DATE":"2022-09-24","SITE":"AFETR","RA_OF_ASC_NODE":"1.8195","OBJECT_ID":"2022-119U","SEMIMAJOR_AXIS":"6795.202","TLE_LINE2":"2 53904  53.2176   1.8195 0001368  55.4761  19.0270 15.49884132  8447","EPHEMERIS_TYPE":"0","MEAN_MOTION":"15.49884132","TIME_SYSTEM":"UTC","DECAY_DATE":null,"OBJECT_TYPE":"PAYLOAD","COUNTRY_CODE":"US","APOAPSIS":"417.996","MEAN_MOTION_DOT":"0.00001998","NORAD_CAT_ID":"53904","REF_FRAME":"TEME","CLASSIFICATION_TYPE":"U","BSTAR":"0.00004314200000"},{"MEAN_MOTION_DOT":"-0.00332333","APOAPSIS":"351.945","BSTAR":"-0.00244230000000","CLASSIFICATION_TYPE":"U","REF_FRAME":"TEME","NORAD_CAT_ID":"53905","EPHEMERIS_TYPE":"0","TLE_LINE2":"2 53905  53.2163   0.8328 0003817   5.0283 203.5472 15.73334392  8452","COUNTRY_CODE":"US","OBJECT_TYPE":"PAYLOAD","TIME_SYSTEM":"UTC","DECAY_DATE":null,"MEAN_MOTION":"15.73334392","RCS_SIZE":"LARGE","MEAN_ELEMENT_THEORY":"SGP4","MEAN_MOTION_DDOT":"0.0000000000000","TLE_LINE1":"1 53905U 22119V   22318.91667824 -.00332333  00000-0 -24423-2 0  9992","EPOCH":"2022-11-14T22:00:00.999936","MEAN_ANOMALY":"203.5472","OBJECT_ID":"2022-119V","SEMIMAJOR_AXIS":"6727.512","RA_OF_ASC_NODE":"0.8328","SITE":"AFETR","LAUNCH_DATE":"2022-09-24","ARG_OF_PERICENTER":"5.0283","ELEMENT_SET_NO":"999","ECCENTRICITY":"0.00038170","CENTER_NAME":"EARTH","REV_AT_EPOCH":"845","OBJECT_NAME":"STARLINK-5003","INCLINATION":"53.2163","FILE":"3655162","PERIAPSIS":"346.809","PERIOD":"91.525","GP_ID":"217744984"},{"EPOCH":"2022-11-14T22:00:00.999936","TLE_LINE1":"1 53906U 22119W   22318.91667824 -.00196182  00000-0 -14202-2 0  9997","MEAN_ANOMALY":"227.5712","MEAN_ELEMENT_THEORY":"SGP4","RCS_SIZE":"LARGE","MEAN_MOTION_DDOT":"0.0000000000000","RA_OF_ASC_NODE":"0.8329","SITE":"AFETR","LAUNCH_DATE":"2022-09-24","OBJECT_ID":"2022-119W","SEMIMAJOR_AXIS":"6727.664","OBJECT_NAME":"STARLINK-5054","FILE":"3655162","INCLINATION":"53.2165","ARG_OF_PERICENTER":"342.7579","REV_AT_EPOCH":"845","ELEMENT_SET_NO":"999","ECCENTRICITY":"0.00042340","CENTER_NAME":"EARTH","PERIOD":"91.528","GP_ID":"217744975","PERIAPSIS":"346.681","APOAPSIS":"352.377","MEAN_MOTION_DOT":"-0.00196182","NORAD_CAT_ID":"53906","REF_FRAME":"TEME","CLASSIFICATION_TYPE":"U","BSTAR":"-0.00142020000000","TLE_LINE2":"2 53906  53.2165   0.8329 0004234 342.7579 227.5712 15.73281087  8454","EPHEMERIS_TYPE":"0","MEAN_MOTION":"15.73281087","OBJECT_TYPE":"PAYLOAD","COUNTRY_CODE":"US","DECAY_DATE":null,"TIME_SYSTEM":"UTC"},{"PERIAPSIS":"415.879","GP_ID":"217788644","PERIOD":"92.910","REV_AT_EPOCH":"130","ECCENTRICITY":"0.00017480","ELEMENT_SET_NO":"999","CENTER_NAME":"EARTH","ARG_OF_PERICENTER":"36.7956","FILE":"3656014","INCLINATION":"53.2176","OBJECT_NAME":"STARLINK-5063","SEMIMAJOR_AXIS":"6795.202","OBJECT_ID":"2022-119X","LAUNCH_DATE":"2022-09-24","RA_OF_ASC_NODE":"1.8154","SITE":"AFETR","MEAN_MOTION_DDOT":"0.0000000000000","MEAN_ELEMENT_THEORY":"SGP4","RCS_SIZE":"LARGE","MEAN_ANOMALY":"39.4920","EPOCH":"2022-11-14T22:00:00.999936","TLE_LINE1":"1 53907U 22119X   22318.91667824  .00002093  00000-0  44831-4 0  9996","DECAY_DATE":null,"TIME_SYSTEM":"UTC","OBJECT_TYPE":"PAYLOAD","COUNTRY_CODE":"US","MEAN_MOTION":"15.49884084","EPHEMERIS_TYPE":"0","TLE_LINE2":"2 53907  53.2176   1.8154 0001748  36.7956  39.4920 15.49884084  1307","BSTAR":"0.00004483100000","CLASSIFICATION_TYPE":"U","NORAD_CAT_ID":"53907","REF_FRAME":"TEME","MEAN_MOTION_DOT":"0.00002093","APOAPSIS":"418.255"},{"PERIAPSIS":"347.381","GP_ID":"217790950","PERIOD":"91.535","REV_AT_EPOCH":"848","ELEMENT_SET_NO":"999","ECCENTRICITY":"0.00036750","CENTER_NAME":"EARTH","ARG_OF_PERICENTER":"5.1511","INCLINATION":"53.2164","FILE":"3656110","OBJECT_NAME":"STARLINK-5057","SEMIMAJOR_AXIS":"6727.988","OBJECT_ID":"2022-119Y","LAUNCH_DATE":"2022-09-24","RA_OF_ASC_NODE":"0.0113","SITE":"AFETR","MEAN_MOTION_DDOT":"0.0000000000000","MEAN_ELEMENT_THEORY":"SGP4","RCS_SIZE":"LARGE","MEAN_ANOMALY":"70.2243","EPOCH":"2022-11-15T02:00:01.000224","TLE_LINE1":"1 53908U 22119Y   22319.08334491  .00047543  00000-0  34164-3 0  9993","TIME_SYSTEM":"UTC","DECAY_DATE":null,"OBJECT_TYPE":"PAYLOAD","COUNTRY_CODE":"US","MEAN_MOTION":"15.73167293","EPHEMERIS_TYPE":"0","TLE_LINE2":"2 53908  53.2164   0.0113 0003675   5.1511  70.2243 15.73167293  8489","BSTAR":"0.00034164000000","REF_FRAME":"TEME","NORAD_CAT_ID":"53908","CLASSIFICATION_TYPE":"U","MEAN_MOTION_DOT":"0.00047543","APOAPSIS":"352.326"},{"DECAY_DATE":null,"TIME_SYSTEM":"UTC","OBJECT_TYPE":"PAYLOAD","COUNTRY_CODE":"US","MEAN_MOTION":"15.73190296","EPHEMERIS_TYPE":"0","TLE_LINE2":"2 53909  53.2161   0.8441 0003918 354.4512 213.5688 15.73190296  8451","BSTAR":"-0.00020022000000","CLASSIFICATION_TYPE":"U","REF_FRAME":"TEME","NORAD_CAT_ID":"53909","MEAN_MOTION_DOT":"-0.00028629","APOAPSIS":"352.424","PERIAPSIS":"347.152","GP_ID":"217744973","PERIOD":"91.534","REV_AT_EPOCH":"845","ELEMENT_SET_NO":"999","ECCENTRICITY":"0.00039180","CENTER_NAME":"EARTH","ARG_OF_PERICENTER":"354.4512","FILE":"3655162","INCLINATION":"53.2161","OBJECT_NAME":"STARLINK-4796","OBJECT_ID":"2022-119Z","SEMIMAJOR_AXIS":"6727.923","LAUNCH_DATE":"2022-09-24","SITE":"AFETR","RA_OF_ASC_NODE":"0.8441","MEAN_MOTION_DDOT":"0.0000000000000","MEAN_ELEMENT_THEORY":"SGP4","RCS_SIZE":"LARGE","MEAN_ANOMALY":"213.5688","EPOCH":"2022-11-14T22:00:00.999936","TLE_LINE1":"1 53909U 22119Z   22318.91667824 -.00028629  00000-0 -20022-3 0  9998"},{"TLE_LINE2":"2 53910  53.2163   0.8254 0003968   2.6646 210.0525 15.73324261  8455","EPHEMERIS_TYPE":"0","MEAN_MOTION":"15.73324261","OBJECT_TYPE":"PAYLOAD","COUNTRY_CODE":"US","TIME_SYSTEM":"UTC","DECAY_DATE":null,"APOAPSIS":"352.075","MEAN_MOTION_DOT":"-0.00278710","REF_FRAME":"TEME","CLASSIFICATION_TYPE":"U","NORAD_CAT_ID":"53910","BSTAR":"-0.00203550000000","OBJECT_NAME":"STARLINK-5056","FILE":"3655178","INCLINATION":"53.2163","ARG_OF_PERICENTER":"2.6646","REV_AT_EPOCH":"845","ELEMENT_SET_NO":"999","ECCENTRICITY":"0.00039680","CENTER_NAME":"EARTH","PERIOD":"91.526","GP_ID":"217744987","PERIAPSIS":"346.736","EPOCH":"2022-11-14T22:00:00.999936","TLE_LINE1":"1 53910U 22119AA  22318.91667824 -.00278710  00000-0 -20355-2 0  9996","MEAN_ANOMALY":"210.0525","MEAN_ELEMENT_THEORY":"SGP4","RCS_SIZE":"LARGE","MEAN_MOTION_DDOT":"0.0000000000000","SITE":"AFETR","RA_OF_ASC_NODE":"0.8254","LAUNCH_DATE":"2022-09-24","OBJECT_ID":"2022-119AA","SEMIMAJOR_AXIS":"6727.541"}];
